UNKNOWN                 
1 87423U 99057    22213.43001002  .00042553  00000+0  21005-2 0  9992
2 87423  98.8130 280.3543 0031190 215.4818 144.4337 15.17327608377736
UNKNOWN                 
1 87426U          22215.43579663  .00000750  00000+0  42276-3 0  9997
2 87426  65.7893  15.0224 0083885 219.9236 168.4910 14.14501858448209
UNKNOWN                 
1 87433U          22214.14804875  .00000647  00000+0  13364-2 0  9998
2 87433 100.2101 352.8151 0041490 332.6483  27.2458 13.36474963268240
UNKNOWN                 
1 87448U 70025    22213.41742533  .00000430  00000+0  42090-3 0  9998
2 87448 100.4471 261.2786 0069064 130.3700 230.3508 13.84780385438778
UNKNOWN                 
1 87456U 76126    22215.17366125  .00000780  00000+0  15362-3 0  9999
2 87456  65.7908  38.1464 0623104 267.5946  85.3697 13.88131117439703
UNKNOWN                 
1 87468U 93036    22211.89785322  .00003079  00000+0  34488-3 0  9994
2 87468  74.0152 175.3447 0065107 250.3566 109.0579 14.85814627296959
UNKNOWN                 
1 87491U 99025    22215.19340282  .00002629  00000+0  60411-3 0  9998
2 87491  98.6272 299.2949 0065015 329.8549  29.8912 14.55089952403383
UNKNOWN                 
1 87501U 93036    22212.67253244  .00005222  00000+0  14011-2 0  9993
2 87501  74.0338   4.9158 0026067  36.1651 324.1265 14.48180912290549
UNKNOWN                 
1 87517U 76126    22214.54817022  .00001407  00000+0  47016-3 0  9992
2 87517  65.8287 306.3543 0726125 173.9044 202.3712 13.46728415426719
UNKNOWN                 
1 87541U 70025    22215.17297977  .00000083  00000+0  24761-3 0  9993
2 87541  99.8554 106.0697 0060366 345.2750 167.0456 13.34950473418206
UNKNOWN                 
1 87553U 76126    22215.54236742  .00000652  00000+0  25660-3 0  9999
2 87553  65.6739  57.4325 0729086  50.3285 315.9782 13.42657259425883
UNKNOWN                 
1 87557U 73086    22215.37829095  .00002102  00000+0  57185-2 0  9993
2 87557 101.7588 266.3429 0082061 173.9797 186.2315 13.14364820403034
UNKNOWN                 
1 87561U 76077    22215.08963293 -.00000139  00000+0 -74375-3 0  9999
2 87561 102.1631 283.1219 0174647  15.5271  99.3127 12.32133884391233
UNKNOWN                 
1 87565U 99025    22214.35564569  .00000443  00000+0  28927-3 0  9991
2 87565  99.9176  81.7623 0180564 243.7149 114.5363 14.00666909444180
UNKNOWN                 
1 87569U 99025    22215.30400147 -.00000018  00000+0  15142-3 0  9996
2 87569 101.8376 336.8523 0056132 148.8065 239.8953 12.68480033402833
UNKNOWN                 
1 87587U 93036    22214.33459558  .00000029  00000+0  18022-4 0  9996
2 87587  74.0228 212.2004 0021039 189.8523 170.2222 14.38951526457053
UNKNOWN                 
1 87590U 99025    22212.93254809  .00000314  00000+0  21041-3 0  9991
2 87590  98.9367 254.6428 0028363 144.8420 338.6833 14.07850295982070
UNKNOWN                 
1 87616U 76067    22215.52957228  .00000091  00000+0  49409-3 0  9994
2 87616  66.0403  37.8666 0643914 300.5235  82.9630 12.45015716383352
UNKNOWN                 
1 87624U 99025    22213.55011476  .00000685  00000+0  15871-3 0  9994
2 87624  98.7557  75.0719 0129858  70.6055 290.9124 14.53530292400909
UNKNOWN                 
1 87642U          22215.48959961  .00011161  00000+0  52114-3 0  9995
2 87642  62.2228 294.6589 0113673 317.5148  41.7193 15.14660077467250
UNKNOWN                 
1 87650U          22214.01731555  .00002264  00000+0  86498-3 0  9995
2 87650 100.2659 121.0251 0054573 177.3542 182.7934 14.31188907 10609
UNKNOWN                 
1 87656U          22211.69425570  .00006264  00000+0  12789-2 0  9994
2 87656  99.1402   5.4373 0018014  98.4596 261.8645 14.61208708820779
UNKNOWN                 
1 87664U 75052    22206.44984865  .00000132  00000+0  46807-3 0  9993
2 87664  99.7173 187.0725 0212104 282.1038 237.3262 13.06271328379909
UNKNOWN                 
1 87672U 93016    22213.15347507  .00000418  00000+0  21915-3 0  9994
2 87672  70.8626 121.7125 0065015 336.9751  22.8461 14.19001020449548
UNKNOWN                 
1 87681U          22215.13185519  .00000297  00000+0  39686-3 0  9997
2 87681  66.7379 116.7117 0170320 253.1320 105.1009 13.67412559433787
UNKNOWN                 
1 87690U 76126    22215.59447668  .00001389  00000+0  23950-3 0  9995
2 87690  65.7965 247.8835 0680794 301.6226  52.0123 13.79299746436947
UNKNOWN                 
1 87706U          22215.16578862  .00000564  00000+0  14505-3 0  9995
2 87706  98.5596 341.7526 0135998  65.9300  56.1507 14.48796756399921
UNKNOWN                 
1 87725U 81053    22214.78326110  .00001666  00000+0  53055-3 0  9994
2 87725  82.8951 226.7085 0031675  28.1646 332.1250 14.39082345455024
UNKNOWN                 
1 87727U 92093    22215.27880830  .00016432  00000+0  21309-2 0  9994
2 87727  70.9819 174.8372 0006516 123.0395 237.1388 14.80814607462115
UNKNOWN                 
1 87730U          22213.82383479  .00000045  00000+0  31409-4 0  9998
2 87730  82.9427  63.1748 0029724 185.7043 174.3779 13.74208833416536
UNKNOWN                 
1 87737U 99025    22215.61498404 -.00000014  00000+0  31053-4 0  9996
2 87737  99.5565  86.9923 0134036 138.3969 222.7469 13.72040067435561
UNKNOWN                 
1 87764U 76126    22215.42939988  .00002689  00000+0  57220-3 0  9991
2 87764  65.6720 218.3927 0487164 326.9036 182.3526 14.06141808444980
UNKNOWN                 
1 87771U 75052    22215.37779517  .00000042  00000+0  21774-3 0  9996
2 87771 100.6851  10.4733 0119436 263.9038  94.8456 13.19077654373244
UNKNOWN                 
1 87782U 73086    22215.12088206  .00001135  00000+0  43898-2 0  9998
2 87782 102.3745 277.8487 0077277 176.1124 184.0583 12.91582370408998
UNKNOWN                 
1 87817U 68097    22214.27057879  .00029372  00000+0  10213-2 0  9998
2 87817  62.7589  47.8849 0154851  65.9362 295.7858 15.18902616501835
UNKNOWN                 
1 87843U 70025    22213.81115746  .00000697  00000+0  17999-2 0  9995
2 87843  99.6836  60.1195 0249032 351.1698   8.5076 13.10652271402840
UNKNOWN                 
1 87845U          22214.32975708  .00000612  00000+0  12565-2 0  9993
2 87845  98.8423  40.9954 0585969 191.9591 166.7068 12.84857015407237
UNKNOWN                 
1 87878U          22214.92245057  .00000632  00000+0  26379-3 0  9993
2 87878  99.2191 244.5187 0040921 234.8970 124.8371 14.29583688435306
UNKNOWN                 
1 87883U 99025    22214.54618548  .00000111  00000+0  59452-4 0  9992
2 87883  99.2119 112.9407 0296194 227.3195 130.2679 14.12416085398786
UNKNOWN                 
1 87884U 99025    22213.09877121  .00000263  00000+0  17160-3 0  9993
2 87884  98.6118 352.5648 0155694 289.3078  69.1310 14.04530472445676
UNKNOWN                 
1 87898U 99025    22214.57598654  .00002385  00000+0  84735-3 0  9992
2 87898  98.9152  83.6452 0128385 252.0135 106.7019 14.30887005451986
UNKNOWN                 
1 87934U          22213.01449625  .00000058  00000+0  46703-4 0  9998
2 87934  82.9378 128.3058 0029823 212.2594 161.4974 13.72828157435576
UNKNOWN                 
1 87942U          22214.88249799  .00004013  00000+0  39810-3 0  9998
2 87942  99.0853 193.2988 0137171  87.1844 304.6181 14.85667051463120
UNKNOWN                 
1 87972U 99025    22213.06643052  .00005983  00000+0  19279-2 0  9998
2 87972  98.8060 141.9114 0167690  20.7641 340.0250 14.31889496399655
UNKNOWN                 
1 87991U 77065    22214.07619412  .00000393  00000+0  65647-3 0  9995
2 87991  28.6289 356.8909 0928380 335.0071  20.8127 12.30079239371355
UNKNOWN                 
1 87998U 99025    22214.88822769  .00000347  00000+0  22686-3 0  9997
2 87998  98.6904 254.4758 0028982 129.2356 231.1393 14.08284426375894
UNKNOWN                 
1 89003U          22215.42607197  .00000075  00000+0  35708-4 0  9996
2 89003  74.0468 104.0991 0015100 106.3995 253.8818 14.34799316455449
UNKNOWN                 
1 89005U          22215.54330384  .00000492  00000+0  14242-3 0  9994
2 89005  97.9621 122.2392 0220033 169.5888 190.9968 14.35299435357488
UNKNOWN                 
1 89029U          22214.34256442  .00000585  00000+0  85276-4 0  9998
2 89029  98.2027  72.9373 0030558   5.0364 355.1148 14.79442462468691
UNKNOWN                 
1 89037U          22212.09726278  .00001710  00000+0  10081-2 0  9997
2 89037  98.4372 168.8382 0141455  59.5518 301.9538 14.04196257349151
UNKNOWN                 
1 89048U          22214.46440276  .00014234  00000+0  24680-2 0  9998
2 89048  99.0442 115.8097 0014646  79.8527 280.4326 14.68304004459271
UNKNOWN                 
1 89067U          22215.24522889  .00009207  00000+0  27910-3 0  9991
2 89067  80.9846 205.7523 0562973 119.8072 246.0326 14.48177337404074
UNKNOWN                 
1 89074U          22215.38245656  .00001762  00000+0  20732-2 0  9990
2 89074 100.2900 250.2726 0050325 238.5868 135.8730 13.69160296420906
UNKNOWN                 
1 89101U          22215.12123079  .00000172  00000+0  64245-3 0  9999
2 89101 100.3070 183.3114 0147526 330.7368  28.5534 13.03670978394869
UNKNOWN                 
1 89123U          22214.26427997  .00001819  00000+0  86503-3 0  9993
2 89123  99.0671 316.9019 0066926 161.1664 199.2009 14.19546658352616
UNKNOWN                 
1 89127U          22213.82313272  .00009609  00000+0  76227-3 0  9995
2 89127  74.0621 248.1530 0035667 256.6980 103.0228 15.00113546309414
UNKNOWN                 
1 89132U          22215.49590574  .00000945  00000+0  90475-3 0  9993
2 89132  63.4356  23.1290 3054721 320.3710  20.8969  8.73735278217067
UNKNOWN                 
1 89135U          22215.12709891  .00001161  00000+0  56789-3 0  9991
2 89135  71.0658  25.2449 0135118 318.5240  40.5687 14.15327013447993
UNKNOWN                 
1 89142U          22215.48373697  .00172129  00000+0  77012-1 0  9992
2 89142  64.8017  32.3148 3143361  82.8255 311.4004  8.73282370202102
UNKNOWN                 
1 89146U          22215.25676121  .00000451  00000+0  12230-3 0  9990
2 89146  98.1861 148.2836 0116697 250.3061 108.5512 14.48549500450407
